{"type": "FeatureCollection", "features": [ {"type": "Feature", "properties": {"norad_id": 66618, "name": "STARLINK-35970", "group": "last-30-days", "lat": 34.7815279959824, "lon": -151.28768128655918, "alt_km": 413.49285380577567, "timestamp": "2025-12-14T18:52:54.242567+00:00", "meta": {"OBJECT_NAME": "STARLINK-35970", "OBJECT_ID": "2025-271B", "EPOCH": "2025-12-13T20:00:03.000384", "MEAN_MOTION": 15.49299793, "ECCENTRICITY": 7.164e-05, "INCLINATION": 53.1598, "RA_OF_ASC_NODE": 181.8923, "ARG_OF_PERICENTER": 56.9092, "MEAN_ANOMALY": 67.9735, "EPHEMERIS_TYPE": 0, "CLASSIFICATION_TYPE": "U", "NORAD_CAT_ID": 66618, "ELEMENT_SET_NO": 999, "REV_AT_EPOCH": 441, "BSTAR": 0.0012699112, "MEAN_MOTION_DOT": 0.00070798, "MEAN_MOTION_DDOT": 0}, "tle": {"line1": "1 66618U 25271B   25347.83336806  .00070798  00000+0  12699-2 0  9991", "line2": "2 66618  53.1598 181.8923 0000716  56.9092  67.9735 15.49299793  4411"}}, "geometry": {"type": "Point", "coordinates": [-151.28768128655918, 34.7815279959824]}}, {"type": "Feature", "properties": {"norad_id": 66619, "name": "STARLINK-35951", "group": "last-30-days", "lat": -0.2037327894772233, "lon": 177.27516757587665, "alt_km": 419.7723609778768, "timestamp": "2025-12-14T18:52:54.242578+00:00", "meta": {"OBJECT_NAME": "STARLINK-35951", "OBJECT_ID": "2025-271C", "EPOCH": "2025-12-13T20:00:03.000384", "MEAN_MOTION": 15.49302284, "ECCENTRICITY": 6.858e-05, "INCLINATION": 53.16, "RA_OF_ASC_NODE": 181.988, "ARG_OF_PERICENTER": 141.1889, "MEAN_ANOMALY": 298.045, "EPHEMERIS_TYPE": 0, "CLASSIFICATION_TYPE": "U", "NORAD_CAT_ID": 66619, "ELEMENT_SET_NO": 999, "REV_AT_EPOCH": 441, "BSTAR": 0.00097380146, "MEAN_MOTION_DOT": 0.00054073, "MEAN_MOTION_DDOT": 0}, "tle": {"line1": "1 66619U 25271C   25347.83336806  .00054073  00000+0  97380-3 0  9991", "line2": "2 66619  53.1600 181.9880 0000685 141.1889 298.0450 15.49302284  4416"}}, "geometry": {"type": "Point", "coordinates": [177.27516757587665, -0.2037327894772233]}}, {"type": "Feature", "properties": {"norad_id": 66620, "name": "STARLINK-35936", "group": "last-30-days", "lat": -4.816237474774094, "lon": 173.81924601600585, "alt_km": 419.8303581467262, "timestamp": "2025-12-14T18:52:54.242588+00:00", "meta": {"OBJECT_NAME": "STARLINK-35936", "OBJECT_ID": "2025-271D", "EPOCH": "2025-12-13T20:00:03.000384", "MEAN_MOTION": 15.49270829, "ECCENTRICITY": 8.607e-05, "INCLINATION": 53.1601, "RA_OF_ASC_NODE": 182.0009, "ARG_OF_PERICENTER": 60.0226, "MEAN_ANOMALY": 13.5401, "EPHEMERIS_TYPE": 0, "CLASSIFICATION_TYPE": "U", "NORAD_CAT_ID": 66620, "ELEMENT_SET_NO": 999, "REV_AT_EPOCH": 441, "BSTAR": 0.0010597279, "MEAN_MOTION_DOT": 0.00058855, "MEAN_MOTION_DDOT": 0}, "tle": {"line1": "1 66620U 25271D   25347.83336806  .00058855  00000+0  10597-2 0  9999", "line2": "2 66620  53.1601 182.0009 0000860  60.0226  13.5401 15.49270829  4418"}}, "geometry": {"type": "Point", "coordinates": [173.81924601600585, -4.816237474774094]}}, {"type": "Feature", "properties": {"norad_id": 66621, "name": "STARLINK-35847", "group": "last-30-days", "lat": 37.147940998983835, "lon": -148.06484582037734, "alt_km": 413.11549173612, "timestamp": "2025-12-14T18:52:54.242611+00:00", "meta": {"OBJECT_NAME": "STARLINK-35847", "OBJECT_ID": "2025-271E", "EPOCH": "2025-12-13T20:00:03.000384", "MEAN_MOTION": 15.49301055, "ECCENTRICITY": 7.351e-05, "INCLINATION": 53.16, "RA_OF_ASC_NODE": 181.8847, "ARG_OF_PERICENTER": 48.7293, "MEAN_ANOMALY": 79.6867, "EPHEMERIS_TYPE": 0, "CLASSIFICATION_TYPE": "U", "NORAD_CAT_ID": 66621, "ELEMENT_SET_NO": 999, "REV_AT_EPOCH": 441, "BSTAR": 0.0011729941, "MEAN_MOTION_DOT": 0.00065318, "MEAN_MOTION_DDOT": 0}, "tle": {"line1": "1 66621U 25271E   25347.83336806  .00065318  00000+0  11730-2 0  9992", "line2": "2 66621  53.1600 181.8847 0000735  48.7293  79.6867 15.49301055  4418"}}, "geometry": {"type": "Point", "coordinates": [-148.06484582037734, 37.147940998983835]}}, {"type": "Feature", "properties": {"norad_id": 66622, "name": "STARLINK-35950", "group": "last-30-days", "lat": 1.3222388530070326, "lon": 178.41651081972344, "alt_km": 419.25987226136294, "timestamp": "2025-12-14T18:52:54.242623+00:00", "meta": {"OBJECT_NAME": "STARLINK-35950", "OBJECT_ID": "2025-271F", "EPOCH": "2025-12-13T20:00:03.000384", "MEAN_MOTION": 15.49272615, "ECCENTRICITY": 6.887e-05, "INCLINATION": 53.1598, "RA_OF_ASC_NODE": 181.9849, "ARG_OF_PERICENTER": 88.6479, "MEAN_ANOMALY": 352.5854, "EPHEMERIS_TYPE": 0, "CLASSIFICATION_TYPE": "U", "NORAD_CAT_ID": 66622, "ELEMENT_SET_NO": 999, "REV_AT_EPOCH": 441, "BSTAR": 0.0010450063, "MEAN_MOTION_DOT": 0.00058029, "MEAN_MOTION_DDOT": 0}, "tle": {"line1": "1 66622U 25271F   25347.83336806  .00058029  00000+0  10450-2 0  9992", "line2": "2 66622  53.1598 181.9849 0000688  88.6479 352.5854 15.49272615  4412"}}, "geometry": {"type": "Point", "coordinates": [178.41651081972344, 1.3222388530070326]}}, {"type": "Feature", "properties": {"norad_id": 66623, "name": "STARLINK-35920", "group": "last-30-days", "lat": 4.394128563971117, "lon": -179.2813585044948, "alt_km": 418.7596477041898, "timestamp": "2025-12-14T18:52:54.242633+00:00", "meta": {"OBJECT_NAME": "STARLINK-35920", "OBJECT_ID": "2025-271G", "EPOCH": "2025-12-13T20:00:03.000384", "MEAN_MOTION": 15.49267756, "ECCENTRICITY": 0.0001276, "INCLINATION": 53.16, "RA_OF_ASC_NODE": 181.9759, "ARG_OF_PERICENTER": 89.4181, "MEAN_ANOMALY": 355.653, "EPHEMERIS_TYPE": 0, "CLASSIFICATION_TYPE": "U", "NORAD_CAT_ID": 66623, "ELEMENT_SET_NO": 999, "REV_AT_EPOCH": 441, "BSTAR": 0.0011927687, "MEAN_MOTION_DOT": 0.00066357, "MEAN_MOTION_DDOT": 0}, "tle": {"line1": "1 66623U 25271G   25347.83336806  .00066357  00000+0  11928-2 0  9997", "line2": "2 66623  53.1600 181.9759 0001276  89.4181 355.6530 15.49267756  4415"}}, "geometry": {"type": "Point", "coordinates": [-179.2813585044948, 4.394128563971117]}}, {"type": "Feature", "properties": {"norad_id": 66624, "name": "STARLINK-35927", "group": "last-30-days", "lat": 2.834969991985077, "lon": 179.548500869342, "alt_km": 419.0759804027448, "timestamp": "2025-12-14T18:52:54.242643+00:00", "meta": {"OBJECT_NAME": "STARLINK-35927", "OBJECT_ID": "2025-271H", "EPOCH": "2025-12-13T20:00:03.000384", "MEAN_MOTION": 15.4927336, "ECCENTRICITY": 6.487e-05, "INCLINATION": 53.1599, "RA_OF_ASC_NODE": 181.9807, "ARG_OF_PERICENTER": 86.9012, "MEAN_ANOMALY": 356.2492, "EPHEMERIS_TYPE": 0, "CLASSIFICATION_TYPE": "U", "NORAD_CAT_ID": 66624, "ELEMENT_SET_NO": 999, "REV_AT_EPOCH": 441, "BSTAR": 0.00088528085, "MEAN_MOTION_DOT": 0.00049035, "MEAN_MOTION_DDOT": 0}, "tle": {"line1": "1 66624U 25271H   25347.83336806  .00049035  00000+0  88528-3 0  9993", "line2": "2 66624  53.1599 181.9807 0000648  86.9012 356.2492 15.49273360  4416"}}, "geometry": {"type": "Point", "coordinates": [179.548500869342, 2.834969991985077]}}, {"type": "Feature", "properties": {"norad_id": 66625, "name": "STARLINK-35929", "group": "last-30-days", "lat": 5.889815614991627, "lon": -178.15220803684926, "alt_km": 418.58064043322975, "timestamp": "2025-12-14T18:52:54.242658+00:00", "meta": {"OBJECT_NAME": "STARLINK-35929", "OBJECT_ID": "2025-271J", "EPOCH": "2025-12-13T20:00:03.000384", "MEAN_MOTION": 15.49273365, "ECCENTRICITY": 0.00012071, "INCLINATION": 53.1601, "RA_OF_ASC_NODE": 181.9719, "ARG_OF_PERICENTER": 88.3617, "MEAN_ANOMALY": 358.6123, "EPHEMERIS_TYPE": 0, "CLASSIFICATION_TYPE": "U", "NORAD_CAT_ID": 66625, "ELEMENT_SET_NO": 999, "REV_AT_EPOCH": 441, "BSTAR": 0.00091876086, "MEAN_MOTION_DOT": 0.00050919, "MEAN_MOTION_DDOT": 0}, "tle": {"line1": "1 66625U 25271J   25347.83336806  .00050919  00000+0  91876-3 0  9997", "line2": "2 66625  53.1601 181.9719 0001207  88.3617 358.6123 15.49273365  4414"}}, "geometry": {"type": "Point", "coordinates": [-178.15220803684926, 5.889815614991627]}}, {"type": "Feature", "properties": {"norad_id": 66626, "name": "STARLINK-35902", "group": "last-30-days", "lat": 7.456505854297804, "lon": -176.96069447847904, "alt_km": 418.34961764434865, "timestamp": "2025-12-14T18:52:54.242668+00:00", "meta": {"OBJECT_NAME": "STARLINK-35902", "OBJECT_ID": "2025-271K", "EPOCH": "2025-12-13T20:00:03.000384", "MEAN_MOTION": 15.49267994, "ECCENTRICITY": 6.851e-05, "INCLINATION": 53.16, "RA_OF_ASC_NODE": 181.9681, "ARG_OF_PERICENTER": 92.6348, "MEAN_ANOMALY": 356.2684, "EPHEMERIS_TYPE": 0, "CLASSIFICATION_TYPE": "U", "NORAD_CAT_ID": 66626, "ELEMENT_SET_NO": 999, "REV_AT_EPOCH": 441, "BSTAR": 0.0011833437, "MEAN_MOTION_DOT": 0.00065825, "MEAN_MOTION_DDOT": 0}, "tle": {"line1": "1 66626U 25271K   25347.83336806  .00065825  00000+0  11833-2 0  9994", "line2": "2 66626  53.1600 181.9681 0000685  92.6348 356.2684 15.49267994  4417"}}, "geometry": {"type": "Point", "coordinates": [-176.96069447847904, 7.456505854297804]}}, {"type": "Feature", "properties": {"norad_id": 66627, "name": "STARLINK-35904", "group": "last-30-days", "lat": 8.956660433941394, "lon": -175.80976816996593, "alt_km": 418.231490498978, "timestamp": "2025-12-14T18:52:54.242680+00:00", "meta": {"OBJECT_NAME": "STARLINK-35904", "OBJECT_ID": "2025-271L", "EPOCH": "2025-12-13T20:00:03.000384", "MEAN_MOTION": 15.4927381, "ECCENTRICITY": 6.816e-05, "INCLINATION": 53.1599, "RA_OF_ASC_NODE": 181.964, "ARG_OF_PERICENTER": 98.4555, "MEAN_ANOMALY": 352.3624, "EPHEMERIS_TYPE": 0, "CLASSIFICATION_TYPE": "U", "NORAD_CAT_ID": 66627, "ELEMENT_SET_NO": 999, "REV_AT_EPOCH": 425, "BSTAR": 0.00091154281, "MEAN_MOTION_DOT": 0.00050513, "MEAN_MOTION_DDOT": 0}, "tle": {"line1": "1 66627U 25271L   25347.83336806  .00050513  00000+0  91154-3 0  9998", "line2": "2 66627  53.1599 181.9640 0000681  98.4555 352.3624 15.49273810  4257"}}, "geometry": {"type": "Point", "coordinates": [-175.80976816996593, 8.956660433941394]}}]}